{
  "type": "FeatureCollection",
  "features": [
    {
      "type": "Feature",
      "properties": {
        "norad_id": 30469,
        "name": "FENGYUN 1C DEB",
        "group": "fengyun-1c-debris",
        "lat": -62.351112929663444,
        "lon": -132.95803094303974,
        "alt_km": 1025.2315167105407,
        "timestamp": "2025-12-26T21:25:53.286912+00:00",
        "meta_object_name": "FENGYUN 1C DEB",
        "meta_object_id": "1999-025AGG",
        "meta_epoch": "2025-12-26T11:44:06.315936",
        "meta_mean_motion": 13.96546373,
        "meta_eccentricity": 0.01587474,
        "meta_inclination": 98.4785,
        "meta_ra_of_asc_node": 210.127,
        "meta_arg_of_pericenter": 131.2032,
        "meta_mean_anomaly": 294.7433,
        "meta_ephemeris_type": 0,
        "meta_classification_type": "U",
        "meta_norad_cat_id": 30469,
        "meta_element_set_no": 999,
        "meta_rev_at_epoch": 95898,
        "meta_bstar": 0.00062100081,
        "meta_mean_motion_dot": 9.17e-06,
        "meta_mean_motion_ddot": 0,
        "tle_line1": "1 30469U 99025AGG 25360.48896199  .00000917  00000+0  62100-3 0  9995",
        "tle_line2": "2 30469  98.4785 210.1270 0158747 131.2032 294.7433 13.96546373958980"
      },
      "geometry": {
        "type": "Point",
        "coordinates": [
          -132.95803094303974,
          -62.351112929663444
        ]
      }
    },
    {
      "type": "Feature",
      "properties": {
        "norad_id": 30471,
        "name": "FENGYUN 1C DEB",
        "group": "fengyun-1c-debris",
        "lat": -1.9810011521007884,
        "lon": -91.64638854654638,
        "alt_km": 798.5634629991064,
        "timestamp": "2025-12-26T21:25:53.286922+00:00",
        "meta_object_name": "FENGYUN 1C DEB",
        "meta_object_id": "1999-025AGJ",
        "meta_epoch": "2025-12-25T19:41:31.435872",
        "meta_mean_motion": 14.13710334,
        "meta_eccentricity": 0.00836033,
        "meta_inclination": 99.0541,
        "meta_ra_of_asc_node": 87.584,
        "meta_arg_of_pericenter": 217.1063,
        "meta_mean_anomaly": 270.0922,
        "meta_ephemeris_type": 0,
        "meta_classification_type": "U",
        "meta_norad_cat_id": 30471,
        "meta_element_set_no": 999,
        "meta_rev_at_epoch": 96627,
        "meta_bstar": 0.0017831112,
        "meta_mean_motion_dot": 3.439e-05,
        "meta_mean_motion_ddot": 0,
        "tle_line1": "1 30471U 99025AGJ 25359.82050273  .00003439  00000+0  17831-2 0  9991",
        "tle_line2": "2 30471  99.0541  87.5840 0083603 217.1063 270.0922 14.13710334966276"
      },
      "geometry": {
        "type": "Point",
        "coordinates": [
          -91.64638854654638,
          -1.9810011521007884
        ]
      }
    },
    {
      "type": "Feature",
      "properties": {
        "norad_id": 30472,
        "name": "FENGYUN 1C DEB",
        "group": "fengyun-1c-debris",
        "lat": 2.7944217332067938,
        "lon": -77.10596072466453,
        "alt_km": 735.7753427534053,
        "timestamp": "2025-12-26T21:25:53.286933+00:00",
        "meta_object_name": "FENGYUN 1C DEB",
        "meta_object_id": "1999-025AGK",
        "meta_epoch": "2025-12-26T06:00:17.464896",
        "meta_mean_motion": 14.54031006,
        "meta_eccentricity": 0.00372822,
        "meta_inclination": 98.6509,
        "meta_ra_of_asc_node": 101.8043,
        "meta_arg_of_pericenter": 37.3158,
        "meta_mean_anomaly": 16.8028,
        "meta_ephemeris_type": 0,
        "meta_classification_type": "U",
        "meta_norad_cat_id": 30472,
        "meta_element_set_no": 999,
        "meta_rev_at_epoch": 98237,
        "meta_bstar": 0.0022072975,
        "meta_mean_motion_dot": 9.358e-05,
        "meta_mean_motion_ddot": 0,
        "tle_line1": "1 30472U 99025AGK 25360.25020214  .00009358  00000+0  22073-2 0  9993",
        "tle_line2": "2 30472  98.6509 101.8043 0037282  37.3158  16.8028 14.54031006982379"
      },
      "geometry": {
        "type": "Point",
        "coordinates": [
          -77.10596072466453,
          2.7944217332067938
        ]
      }
    },
    {
      "type": "Feature",
      "properties": {
        "norad_id": 30474,
        "name": "FENGYUN 1C DEB",
        "group": "fengyun-1c-debris",
        "lat": -44.30902586717003,
        "lon": 89.14893987438548,
        "alt_km": 755.2451486420414,
        "timestamp": "2025-12-26T21:25:53.286943+00:00",
        "meta_object_name": "FENGYUN 1C DEB",
        "meta_object_id": "1999-025AGM",
        "meta_epoch": "2025-12-26T05:11:47.457600",
        "meta_mean_motion": 14.37928817,
        "meta_eccentricity": 0.00234498,
        "meta_inclination": 98.9275,
        "meta_ra_of_asc_node": 79.62,
        "meta_arg_of_pericenter": 320.0121,
        "meta_mean_anomaly": 95.368,
        "meta_ephemeris_type": 0,
        "meta_classification_type": "U",
        "meta_norad_cat_id": 30474,
        "meta_element_set_no": 999,
        "meta_rev_at_epoch": 97587,
        "meta_bstar": 0.0022549531,
        "meta_mean_motion_dot": 6.791e-05,
        "meta_mean_motion_ddot": 0,
        "tle_line1": "1 30474U 99025AGM 25360.21652150  .00006791  00000+0  22550-2 0  9999",
        "tle_line2": "2 30474  98.9275  79.6200 0023449 320.0121  95.3680 14.37928817975872"
      },
      "geometry": {
        "type": "Point",
        "coordinates": [
          89.14893987438548,
          -44.30902586717003
        ]
      }
    },
    {
      "type": "Feature",
      "properties": {
        "norad_id": 30475,
        "name": "FENGYUN 1C DEB",
        "group": "fengyun-1c-debris",
        "lat": -27.210535759459287,
        "lon": 46.77912509696683,
        "alt_km": 841.4176759156053,
        "timestamp": "2025-12-26T21:25:53.286954+00:00",
        "meta_object_name": "FENGYUN 1C DEB",
        "meta_object_id": "1999-025AGN",
        "meta_epoch": "2025-12-26T15:23:58.024320",
        "meta_mean_motion": 14.15721527,
        "meta_eccentricity": 0.00432357,
        "meta_inclination": 98.7871,
        "meta_ra_of_asc_node": 41.9699,
        "meta_arg_of_pericenter": 250.6211,
        "meta_mean_anomaly": 241.2037,
        "meta_ephemeris_type": 0,
        "meta_classification_type": "U",
        "meta_norad_cat_id": 30475,
        "meta_element_set_no": 999,
        "meta_rev_at_epoch": 97148,
        "meta_bstar": 0.00076301777,
        "meta_mean_motion_dot": 1.467e-05,
        "meta_mean_motion_ddot": 0,
        "tle_line1": "1 30475U 99025AGN 25360.64164380  .00001467  00000+0  76302-3 0  9990",
        "tle_line2": "2 30475  98.7871  41.9699 0043235 250.6211 241.2037 14.15721527971486"
      },
      "geometry": {
        "type": "Point",
        "coordinates": [
          46.77912509696683,
          -27.210535759459287
        ]
      }
    },
    {
      "type": "Feature",
      "properties": {
        "norad_id": 30476,
        "name": "FENGYUN 1C DEB",
        "group": "fengyun-1c-debris",
        "lat": -2.197927884135995,
        "lon": 38.898641602508235,
        "alt_km": 830.3072561366625,
        "timestamp": "2025-12-26T21:25:53.286963+00:00",
        "meta_object_name": "FENGYUN 1C DEB",
        "meta_object_id": "1999-025AGP",
        "meta_epoch": "2025-12-26T01:18:14.532768",
        "meta_mean_motion": 14.20986918,
        "meta_eccentricity": 0.00454467,
        "meta_inclination": 99.1241,
        "meta_ra_of_asc_node": 37.6796,
        "meta_arg_of_pericenter": 261.0177,
        "meta_mean_anomaly": 128.6192,
        "meta_ephemeris_type": 0,
        "meta_classification_type": "U",
        "meta_norad_cat_id": 30476,
        "meta_element_set_no": 999,
        "meta_rev_at_epoch": 97034,
        "meta_bstar": 0.0013593521,
        "meta_mean_motion_dot": 2.93e-05,
        "meta_mean_motion_ddot": 0,
        "tle_line1": "1 30476U 99025AGP 25360.05433487  .00002930  00000+0  13594-2 0  9992",
        "tle_line2": "2 30476  99.1241  37.6796 0045446 261.0177 128.6192 14.20986918970343"
      },
      "geometry": {
        "type": "Point",
        "coordinates": [
          38.898641602508235,
          -2.197927884135995
        ]
      }
    },
    {
      "type": "Feature",
      "properties": {
        "norad_id": 30477,
        "name": "FENGYUN 1C DEB",
        "group": "fengyun-1c-debris",
        "lat": 75.73654342304958,
        "lon": -56.58810565164345,
        "alt_km": 1417.4245567852586,
        "timestamp": "2025-12-26T21:25:53.286975+00:00",
        "meta_object_name": "FENGYUN 1C DEB",
        "meta_object_id": "1999-025AGQ",
        "meta_epoch": "2025-12-24T17:06:57.740256",
        "meta_mean_motion": 13.23866384,
        "meta_eccentricity": 0.04352706,
        "meta_inclination": 99.4248,
        "meta_ra_of_asc_node": 80.6407,
        "meta_arg_of_pericenter": 248.3323,
        "meta_mean_anomaly": 271.9302,
        "meta_ephemeris_type": 0,
        "meta_classification_type": "U",
        "meta_norad_cat_id": 30477,
        "meta_element_set_no": 999,
        "meta_rev_at_epoch": 90877,
        "meta_bstar": 0.0027412975,
        "meta_mean_motion_dot": 1.894e-05,
        "meta_mean_motion_ddot": 0,
        "tle_line1": "1 30477U 99025AGQ 25358.71316829  .00001894  00000+0  27413-2 0  9996",
        "tle_line2": "2 30477  99.4248  80.6407 0435270 248.3323 271.9302 13.23866384908779"
      },
      "geometry": {
        "type": "Point",
        "coordinates": [
          -56.58810565164345,
          75.73654342304958
        ]
      }
    }
  ]
}